SL-16 R/B               
1 25400U 98043G   26029.43996853  .00000131  00000+0  73820-4 0  9999
2 25400  98.8190 342.5415 0010692 124.6953 235.5235 14.26039837433390
SL-16 R/B               
1 25407U 98045B   26029.37176453 -.00000089  00000+0 -20839-4 0  9993
2 25407  71.0100 264.2596 0005071  83.2339 276.9361 14.16187068421535
ISS (ZARYA)             
1 25544U 98067A   26029.14423895  .00012119  00000+0  23330-3 0  9992
2 25544  51.6318 267.8418 0011079  40.9721 319.2097 15.48261724550206
CZ-4B R/B               
1 25732U 99025C   26028.74509919  .00000115  00000+0  76036-4 0  9998
2 25732  98.6703  73.9587 0038175  99.6750  13.3478 14.18256807382509
OKEAN-O                 
1 25860U 99039A   26029.44692980  .00001193  00000+0  16359-3 0  9992
2 25860  97.9527  89.7207 0001904  94.9098 265.2331 14.80267189428583
SL-16 R/B               
1 25861U 99039B   26029.39640282  .00000960  00000+0  12866-3 0  9995
2 25861  98.0051  88.5346 0015444  29.8081 330.4008 14.81672608431040
DELTA 2 R/B             
1 25876U 99041E   26029.43435296  .00003580  00000+0  61285-3 0  9996
2 25876  51.7642  98.0351 0502696 232.4384 122.9875 14.11663460357488
HELIOS 1B               
1 25977U 99064A   26029.29788625  .00002844  00000+0  31993-3 0  9999
2 25977  98.1738 290.3766 0001548 128.6586 231.4768 14.87527024679402
TERRA                   
1 25994U 99068A   26029.48083601  .00000740  00000+0  15998-3 0  9995
2 25994  97.9675  84.3970 0001336 336.6725 131.5489 14.60969426389356
SL-16 R/B               
1 26070U 00006B   26029.51825240  .00000334  00000+0  19396-3 0  9997
2 26070  71.0018 180.1979 0018556 244.3193 115.6014 14.15817177343011
TITAN 4B R/B            
1 26474U 00047B   26029.46724395  .00006325  00000+0  39852-3 0  9998
2 26474  67.9893 150.7723 0036690  84.4667 276.0664 15.09225244386991
ENVISAT                 
1 27386U 02009A   26029.47525705  .00000225  00000+0  86829-4 0  9996
2 27386  98.3664 344.0228 0001242  92.0816  18.2921 14.39021349253539
