CCSDS_OMM_VERS = 2.0
CREATION_DATE  = 
ORIGINATOR     = 

OBJECT_NAME    = SL-16 R/B
OBJECT_ID      = 1998-043G
CENTER_NAME    = EARTH
REF_FRAME      = TEME
TIME_SYSTEM    = UTC
MEAN_ELEMENT_THEORY = SGP/SGP4

EPOCH          = 2026-01-29T10:33:33.280992
MEAN_MOTION    = 14.26039837
ECCENTRICITY   = .0010692
INCLINATION    = 98.8190
RA_OF_ASC_NODE = 342.5415
ARG_OF_PERICENTER = 124.6953
MEAN_ANOMALY   = 235.5235

EPHEMERIS_TYPE = 0
CLASSIFICATION_TYPE = U
NORAD_CAT_ID   = 25400
ELEMENT_SET_NO = 999
REV_AT_EPOCH   = 43339
BSTAR          = .7382E-4
MEAN_MOTION_DOT = .131E-5
MEAN_MOTION_DDOT = 0

CCSDS_OMM_VERS = 2.0
CREATION_DATE  = 
ORIGINATOR     = 

OBJECT_NAME    = SL-16 R/B
OBJECT_ID      = 1998-045B
CENTER_NAME    = EARTH
REF_FRAME      = TEME
TIME_SYSTEM    = UTC
MEAN_ELEMENT_THEORY = SGP/SGP4

EPOCH          = 2026-01-29T08:55:20.455392
MEAN_MOTION    = 14.16187068
ECCENTRICITY   = .0005071
INCLINATION    = 71.0100
RA_OF_ASC_NODE = 264.2596
ARG_OF_PERICENTER = 83.2339
MEAN_ANOMALY   = 276.9361

EPHEMERIS_TYPE = 0
CLASSIFICATION_TYPE = U
NORAD_CAT_ID   = 25407
ELEMENT_SET_NO = 999
REV_AT_EPOCH   = 42153
BSTAR          = -.20839E-4
MEAN_MOTION_DOT = -.89E-6
MEAN_MOTION_DDOT = 0

CCSDS_OMM_VERS = 2.0
CREATION_DATE  = 
ORIGINATOR     = 

OBJECT_NAME    = ISS (ZARYA)
OBJECT_ID      = 1998-067A
CENTER_NAME    = EARTH
REF_FRAME      = TEME
TIME_SYSTEM    = UTC
MEAN_ELEMENT_THEORY = SGP/SGP4

EPOCH          = 2026-01-29T03:27:42.245280
MEAN_MOTION    = 15.48261724
ECCENTRICITY   = .0011079
INCLINATION    = 51.6318
RA_OF_ASC_NODE = 267.8418
ARG_OF_PERICENTER = 40.9721
MEAN_ANOMALY   = 319.2097

EPHEMERIS_TYPE = 0
CLASSIFICATION_TYPE = U
NORAD_CAT_ID   = 25544
ELEMENT_SET_NO = 999
REV_AT_EPOCH   = 55020
BSTAR          = .2333E-3
MEAN_MOTION_DOT = .12119E-3
MEAN_MOTION_DDOT = 0

CCSDS_OMM_VERS = 2.0
CREATION_DATE  = 
ORIGINATOR     = 

OBJECT_NAME    = CZ-4B R/B
OBJECT_ID      = 1999-025C
CENTER_NAME    = EARTH
REF_FRAME      = TEME
TIME_SYSTEM    = UTC
MEAN_ELEMENT_THEORY = SGP/SGP4

EPOCH          = 2026-01-28T17:52:56.570016
MEAN_MOTION    = 14.18256807
ECCENTRICITY   = .00381752
INCLINATION    = 98.6703
RA_OF_ASC_NODE = 73.9587
ARG_OF_PERICENTER = 99.6750
MEAN_ANOMALY   = 13.3478

EPHEMERIS_TYPE = 0
CLASSIFICATION_TYPE = U
NORAD_CAT_ID   = 25732
ELEMENT_SET_NO = 999
REV_AT_EPOCH   = 38250
BSTAR          = .76035705E-4
MEAN_MOTION_DOT = .115E-5
MEAN_MOTION_DDOT = 0

CCSDS_OMM_VERS = 2.0
CREATION_DATE  = 
ORIGINATOR     = 

OBJECT_NAME    = OKEAN-O
OBJECT_ID      = 1999-039A
CENTER_NAME    = EARTH
REF_FRAME      = TEME
TIME_SYSTEM    = UTC
MEAN_ELEMENT_THEORY = SGP/SGP4

EPOCH          = 2026-01-29T10:43:34.734720
MEAN_MOTION    = 14.80267189
ECCENTRICITY   = .0001904
INCLINATION    = 97.9527
RA_OF_ASC_NODE = 89.7207
ARG_OF_PERICENTER = 94.9098
MEAN_ANOMALY   = 265.2331

EPHEMERIS_TYPE = 0
CLASSIFICATION_TYPE = U
NORAD_CAT_ID   = 25860
ELEMENT_SET_NO = 999
REV_AT_EPOCH   = 42858
BSTAR          = .16359E-3
MEAN_MOTION_DOT = .1193E-4
MEAN_MOTION_DDOT = 0

CCSDS_OMM_VERS = 2.0
CREATION_DATE  = 
ORIGINATOR     = 

OBJECT_NAME    = SL-16 R/B
OBJECT_ID      = 1999-039B
CENTER_NAME    = EARTH
REF_FRAME      = TEME
TIME_SYSTEM    = UTC
MEAN_ELEMENT_THEORY = SGP/SGP4

EPOCH          = 2026-01-29T09:30:49.203648
MEAN_MOTION    = 14.81672608
ECCENTRICITY   = .0015444
INCLINATION    = 98.0051
RA_OF_ASC_NODE = 88.5346
ARG_OF_PERICENTER = 29.8081
MEAN_ANOMALY   = 330.4008

EPHEMERIS_TYPE = 0
CLASSIFICATION_TYPE = U
NORAD_CAT_ID   = 25861
ELEMENT_SET_NO = 999
REV_AT_EPOCH   = 43104
BSTAR          = .12866E-3
MEAN_MOTION_DOT = .96E-5
MEAN_MOTION_DDOT = 0

CCSDS_OMM_VERS = 2.0
CREATION_DATE  = 
ORIGINATOR     = 

OBJECT_NAME    = DELTA 2 R/B
OBJECT_ID      = 1999-041E
CENTER_NAME    = EARTH
REF_FRAME      = TEME
TIME_SYSTEM    = UTC
MEAN_ELEMENT_THEORY = SGP/SGP4

EPOCH          = 2026-01-29T10:25:28.095744
MEAN_MOTION    = 14.11663460
ECCENTRICITY   = .0502696
INCLINATION    = 51.7642
RA_OF_ASC_NODE = 98.0351
ARG_OF_PERICENTER = 232.4384
MEAN_ANOMALY   = 122.9875

EPHEMERIS_TYPE = 0
CLASSIFICATION_TYPE = U
NORAD_CAT_ID   = 25876
ELEMENT_SET_NO = 999
REV_AT_EPOCH   = 35748
BSTAR          = .61285E-3
MEAN_MOTION_DOT = .358E-4
MEAN_MOTION_DDOT = 0

CCSDS_OMM_VERS = 2.0
CREATION_DATE  = 
ORIGINATOR     = 

OBJECT_NAME    = HELIOS 1B
OBJECT_ID      = 1999-064A
CENTER_NAME    = EARTH
REF_FRAME      = TEME
TIME_SYSTEM    = UTC
MEAN_ELEMENT_THEORY = SGP/SGP4

EPOCH          = 2026-01-29T07:08:57.372000
MEAN_MOTION    = 14.87527024
ECCENTRICITY   = .0001548
INCLINATION    = 98.1738
RA_OF_ASC_NODE = 290.3766
ARG_OF_PERICENTER = 128.6586
MEAN_ANOMALY   = 231.4768

EPHEMERIS_TYPE = 0
CLASSIFICATION_TYPE = U
NORAD_CAT_ID   = 25977
ELEMENT_SET_NO = 999
REV_AT_EPOCH   = 67940
BSTAR          = .31993E-3
MEAN_MOTION_DOT = .2844E-4
MEAN_MOTION_DDOT = 0

CCSDS_OMM_VERS = 2.0
CREATION_DATE  = 
ORIGINATOR     = 

OBJECT_NAME    = TERRA
OBJECT_ID      = 1999-068A
CENTER_NAME    = EARTH
REF_FRAME      = TEME
TIME_SYSTEM    = UTC
MEAN_ELEMENT_THEORY = SGP/SGP4

EPOCH          = 2026-01-29T11:32:24.231264
MEAN_MOTION    = 14.60969426
ECCENTRICITY   = .0001336
INCLINATION    = 97.9675
RA_OF_ASC_NODE = 84.3970
ARG_OF_PERICENTER = 336.6725
MEAN_ANOMALY   = 131.5489

EPHEMERIS_TYPE = 0
CLASSIFICATION_TYPE = U
NORAD_CAT_ID   = 25994
ELEMENT_SET_NO = 999
REV_AT_EPOCH   = 38935
BSTAR          = .15998E-3
MEAN_MOTION_DOT = .74E-5
MEAN_MOTION_DDOT = 0

CCSDS_OMM_VERS = 2.0
CREATION_DATE  = 
ORIGINATOR     = 

OBJECT_NAME    = SL-16 R/B
OBJECT_ID      = 2000-006B
CENTER_NAME    = EARTH
REF_FRAME      = TEME
TIME_SYSTEM    = UTC
MEAN_ELEMENT_THEORY = SGP/SGP4

EPOCH          = 2026-01-29T12:26:17.007360
MEAN_MOTION    = 14.15817177
ECCENTRICITY   = .0018556
INCLINATION    = 71.0018
RA_OF_ASC_NODE = 180.1979
ARG_OF_PERICENTER = 244.3193
MEAN_ANOMALY   = 115.6014

EPHEMERIS_TYPE = 0
CLASSIFICATION_TYPE = U
NORAD_CAT_ID   = 26070
ELEMENT_SET_NO = 999
REV_AT_EPOCH   = 34301
BSTAR          = .19396E-3
MEAN_MOTION_DOT = .334E-5
MEAN_MOTION_DDOT = 0

CCSDS_OMM_VERS = 2.0
CREATION_DATE  = 
ORIGINATOR     = 

OBJECT_NAME    = TITAN 4B R/B
OBJECT_ID      = 2000-047B
CENTER_NAME    = EARTH
REF_FRAME      = TEME
TIME_SYSTEM    = UTC
MEAN_ELEMENT_THEORY = SGP/SGP4

EPOCH          = 2026-01-29T11:12:49.877280
MEAN_MOTION    = 15.09225244
ECCENTRICITY   = .003669
INCLINATION    = 67.9893
RA_OF_ASC_NODE = 150.7723
ARG_OF_PERICENTER = 84.4667
MEAN_ANOMALY   = 276.0664

EPHEMERIS_TYPE = 0
CLASSIFICATION_TYPE = U
NORAD_CAT_ID   = 26474
ELEMENT_SET_NO = 999
REV_AT_EPOCH   = 38699
BSTAR          = .39852E-3
MEAN_MOTION_DOT = .6325E-4
MEAN_MOTION_DDOT = 0

CCSDS_OMM_VERS = 2.0
CREATION_DATE  = 
ORIGINATOR     = 

OBJECT_NAME    = ENVISAT
OBJECT_ID      = 2002-009A
CENTER_NAME    = EARTH
REF_FRAME      = TEME
TIME_SYSTEM    = UTC
MEAN_ELEMENT_THEORY = SGP/SGP4

EPOCH          = 2026-01-29T11:24:22.209120
MEAN_MOTION    = 14.39021349
ECCENTRICITY   = .0001242
INCLINATION    = 98.3664
RA_OF_ASC_NODE = 344.0228
ARG_OF_PERICENTER = 92.0816
MEAN_ANOMALY   = 18.2921

EPHEMERIS_TYPE = 0
CLASSIFICATION_TYPE = U
NORAD_CAT_ID   = 27386
ELEMENT_SET_NO = 999
REV_AT_EPOCH   = 25353
BSTAR          = .86829E-4
MEAN_MOTION_DOT = .225E-5
MEAN_MOTION_DDOT = 0

